[{"OBJECT_NAME":"STARLINK-4719","OBJECT_ID":"2022-111B","EPOCH":"2026-03-09T20:43:05.634624","MEAN_MOTION":15.08845552,"ECCENTRICITY":0.00012818,"INCLINATION":53.2162,"RA_OF_ASC_NODE":283.2276,"ARG_OF_PERICENTER":98.5226,"MEAN_ANOMALY":261.5912,"EPHEMERIS_TYPE":0,"CLASSIFICATION_TYPE":"U","NORAD_CAT_ID":53774,"ELEMENT_SET_NO":999,"REV_AT_EPOCH":19373,"BSTAR":8.1658288e-5,"MEAN_MOTION_DOT":1.012e-5,"MEAN_MOTION_DDOT":0},{"OBJECT_NAME":"LEMUR-2-NEUROSPICY","OBJECT_ID":"2025-061E","EPOCH":"2026-03-09T21:29:47.005152","MEAN_MOTION":15.13370729,"ECCENTRICITY":0.00155025,"INCLINATION":97.5545,"RA_OF_ASC_NODE":45.3302,"ARG_OF_PERICENTER":239.5457,"MEAN_ANOMALY":120.4243,"EPHEMERIS_TYPE":0,"CLASSIFICATION_TYPE":"U","NORAD_CAT_ID":63355,"ELEMENT_SET_NO":999,"REV_AT_EPOCH":5259,"BSTAR":0.00032487858,"MEAN_MOTION_DOT":5.745e-5,"MEAN_MOTION_DDOT":0}]
